STARLINK-36356
1 68242U 26054L   26089.73680966 -.00468872  00000+0 -25692-2 0  9991
2 68242  53.1596 207.1073 0000503  49.8547 310.2520 15.80312000  2104
